NEE-02 KRYSAOR          
1 39441U 13066AB  26068.37805844  .00004234  00000+0  46919-3 0  9992
2 39441  97.8816   8.3817 0067760  38.0821 322.5155 14.86160783661377
STARLINK-5507           
1 55638U 23021L   26068.71917249  .00000015  00000+0  90239-5 0  9990
2 55638  70.0004 204.3366 0003150 268.0006  92.0792 14.98330813168302
