[{"OBJECT_NAME":"NEE-02 KRYSAOR","OBJECT_ID":"2013-066AB","EPOCH":"2026-03-09T09:04:24.249216","MEAN_MOTION":14.86160783,"ECCENTRICITY":0.006776,"INCLINATION":97.8816,"RA_OF_ASC_NODE":8.3817,"ARG_OF_PERICENTER":38.0821,"MEAN_ANOMALY":322.5155,"EPHEMERIS_TYPE":0,"CLASSIFICATION_TYPE":"U","NORAD_CAT_ID":39441,"ELEMENT_SET_NO":999,"REV_AT_EPOCH":66137,"BSTAR":0.00046918892,"MEAN_MOTION_DOT":4.234e-5,"MEAN_MOTION_DDOT":0},{"OBJECT_NAME":"STARLINK-5507","OBJECT_ID":"2023-021L","EPOCH":"2026-03-09T17:15:36.504000","MEAN_MOTION":14.98330813,"ECCENTRICITY":0.00031505,"INCLINATION":70.0004,"RA_OF_ASC_NODE":204.3366,"ARG_OF_PERICENTER":268.0006,"MEAN_ANOMALY":92.0792,"EPHEMERIS_TYPE":0,"CLASSIFICATION_TYPE":"U","NORAD_CAT_ID":55638,"ELEMENT_SET_NO":999,"REV_AT_EPOCH":16830,"BSTAR":9.023888e-6,"MEAN_MOTION_DOT":1.5e-7,"MEAN_MOTION_DDOT":0}]
